AOR-E (EGNOS/PRN 120)   
1 24307U 96053A   09160.97064604 -.00000117  00000-0  10000-3 0  8635
2 24307   0.0680 338.5326 0005909 102.5705 151.2946  1.00272205 46710
IOR-W (EGNOS/PRN 126)   
1 25153U 98006B   09159.01440163  .00000144  00000-0  10000-3 0  5968
2 25153   0.4864   4.0384 0003924  67.8397 214.5821  1.00268448 41570
ARTEMIS (EGNOS/PRN 124) 
1 26863U 01029A   09159.03229308  .00000126  00000-0  10000-3 0  7078
2 26863   7.4292  69.2557 0003913  20.5537 199.7859  1.00276559 30054
MTSAT-1R (MSAS/PRN 129) 
1 28622U 05006A   09161.14952752 -.00000274  00000-0  10000-3 0  1724
2 28622   0.0671 105.9324 0001527 158.2190 188.3650  1.00269672 15685
ANIK F1R (WAAS/PRN 138) 
1 28868U 05036A   09160.53498398 -.00000069  00000-0  10000-3 0  6864
2 28868   0.0160   0.4214 0002386 101.0364 241.8611  1.00272075 13816
GALAXY 15 (WAAS/PRN 135)
1 28884U 05041A   09159.43217176  .00000084  00000-0  10000-3 0  6392
2 28884   0.0054 334.8314 0002640  91.5881 213.1099  1.00273420 13391
MTSAT-2 (MSAS/PRN 137)  
1 28937U 06004A   09159.61758169 -.00000238  00000-0  10000-3 0  5833
2 28937   0.0046 271.4305 0003124 142.5939 210.4386  1.00270333 12147
